NORAD_CAT_ID,OBJECT_NAME,OBJECT_TYPE,EPOCH,MEAN_MOTION,ECCENTRICITY,INCLINATION,RA_OF_ASC_NODE,ARG_OF_PERICENTER,MEAN_ANOMALY,BSTAR,MEAN_MOTION_DOT,MEAN_MOTION_DDOT,TLE_LINE0,TLE_LINE1,TLE_LINE2,SEMIMAJOR_AXIS,PERIOD,APOGEE,PERIGEE,DECAYED
55673.0,STARLINK-5463,PAYLOAD,2023-08-08 17:36:47,15.51352106,0.0004326,69.9976,27.1091,217.4889,142.5996,0.00025684,0.00015021,0.0,0 STARLINK-5463,1 55673U 23021AX  23220.73388716  .00015021  00000-0  25684-3 0  9993,2 55673  69.9976  27.1091 0004326 217.4889 142.5996 15.51352106 27529,6790.914,92.822,415.717,409.842,0.0
55673.0,STARLINK-5463,PAYLOAD,2023-08-09 02:56:11,15.49944047,0.0003578,69.9974,26.0567,275.2418,84.8359,-0.0026601,-0.00146761,0.0,0 STARLINK-5463,1 55673U 23021AX  23221.12235153 -.00146761  00000-0 -26601-2 0  9990,2 55673  69.9974  26.0567 0003578 275.2418  84.8359 15.49944047 27586,6795.027,92.907,419.323,414.46,0.0
55673.0,STARLINK-5463,PAYLOAD,2023-08-09 14:00:01,15.48002277,0.000366,70.0006,24.7989,270.4673,141.4406,-0.020027,-0.00962473,0.0,0 STARLINK-5463,1 55673U 23021AX  23221.58334491 -.00962473  00000-0 -20027-1 0  9996,2 55673  70.0006  24.7989 0003660 270.4673 141.4406 15.48002277 27650,6800.708,93.023,425.062,420.084,0.0
55673.0,STARLINK-5463,PAYLOAD,2023-08-10 06:00:00,15.46634214,0.000338,70.0002,22.9869,270.0654,254.3281,-0.018302,-0.00836863,0.0,0 STARLINK-5463,1 55673U 23021AX  23222.25001157 -.00836863  00000-0 -18302-1 0  9997,2 55673  70.0002  22.9869 0003380 270.0654 254.3281 15.46634214 27753,6804.717,93.105,428.882,424.282,0.0
55673.0,STARLINK-5463,PAYLOAD,2023-08-10 14:00:01,15.46039658,0.0003425,70.0003,22.0824,270.106,309.3348,-0.021262,-0.00955059,0.0,0 STARLINK-5463,1 55673U 23021AX  23222.58334491 -.00955059  00000-0 -21262-1 0  9991,2 55673  70.0003  22.0824 0003425 270.1060 309.3348 15.46039658 27800,6806.462,93.141,430.658,425.996,0.0
55673.0,STARLINK-5463,PAYLOAD,2023-08-11 06:00:00,15.44673446,0.000346,70.0,20.2756,269.8528,57.3788,-0.019386,-0.00829303,0.0,0 STARLINK-5463,1 55673U 23021AX  23223.25001157 -.00829303  00000-0 -19386-1 0  9992,2 55673  70.0000  20.2756 0003460 269.8528  57.3788 15.44673446 27911,6810.475,93.224,434.696,429.983,0.0
55673.0,STARLINK-5463,PAYLOAD,2023-08-11 14:00:01,15.44080575,0.0003494,70.0003,19.3737,271.6003,108.3323,-0.022685,-0.00953031,0.0,0 STARLINK-5463,1 55673U 23021AX  23223.58334491 -.00953031  00000-0 -22685-1 0  9990,2 55673  70.0003  19.3737 0003494 271.6003 108.3323 15.44080575 27960,6812.218,93.259,436.463,431.703,0.0
55673.0,STARLINK-5463,PAYLOAD,2023-08-12 06:00:00,15.42719514,0.0003271,69.9998,17.5721,268.7979,214.2275,-0.02078,-0.00831629,0.0,0 STARLINK-5463,1 55673U 23021AX  23224.25001157 -.00831629  00000-0 -20780-1 0  9997,2 55673  69.9998  17.5721 0003271 268.7979 214.2275 15.42719514 28060,6816.224,93.342,440.319,435.859,0.0
55673.0,STARLINK-5463,PAYLOAD,2023-08-12 14:00:01,15.42115206,0.0003259,70.0002,16.6727,270.7979,262.5866,-0.023825,-0.00937866,0.0,0 STARLINK-5463,1 55673U 23021AX  23224.58334491 -.00937866  00000-0 -23825-1 0  9996,2 55673  70.0002  16.6727 0003259 270.7979 262.5866 15.42115206 28110,6818.005,93.378,442.092,437.648,0.0
55673.0,STARLINK-5463,PAYLOAD,2023-08-13 14:00:01,15.4016983,0.0003476,70.0001,13.9801,266.5305,53.2553,-0.025606,-0.00944166,0.0,0 STARLINK-5463,1 55673U 23021AX  23225.58334491 -.00944166  00000-0 -25606-1 0  9997,2 55673  70.0001  13.9801 0003476 266.5305  53.2553 15.40169830 28274,6823.745,93.496,447.982,443.238,0.0
55673.0,STARLINK-5463,PAYLOAD,2023-08-14 14:00:01,15.38212501,0.0003444,70.0002,11.2957,270.3842,188.7707,-0.027355,-0.0094559,0.0,0 STARLINK-5463,1 55673U 23021AX  23226.58334491 -.00945590  00000-0 -27355-1 0  9993,2 55673  70.0002  11.2957 0003444 270.3842 188.7707 15.38212501 28425,6829.532,93.615,453.749,449.045,0.0
55673.0,STARLINK-5463,PAYLOAD,2023-08-15 14:00:01,15.3625185,0.0003318,70.0007,8.619,269.0338,322.4505,-0.028924,-0.00938703,0.0,0 STARLINK-5463,1 55673U 23021AX  23227.58334491 -.00938703  00000-0 -28924-1 0  9995,2 55673  70.0007   8.6190 0003318 269.0338 322.4505 15.36251850 28571,6835.342,93.735,459.475,454.939,0.0
55673.0,STARLINK-5463,PAYLOAD,2023-08-15 18:00:00,15.35900588,0.0003382,70.0006,8.1736,274.7201,158.1432,-0.027893,-0.00898502,0.0,0 STARLINK-5463,1 55673U 23021AX  23227.75001157 -.00898502  00000-0 -27893-1 0  9990,2 55673  70.0006   8.1736 0003382 274.7201 158.1432 15.35900588 28609,6836.384,93.756,460.561,455.937,0.0
55673.0,STARLINK-5463,PAYLOAD,2023-08-16 22:00:00,15.33635573,0.0003464,70.0006,5.0622,274.7609,122.2102,-0.030975,-0.00925702,0.0,0 STARLINK-5463,1 55673U 23021AX  23228.91667824 -.00925702  00000-0 -30975-1 0  9996,2 55673  70.0006   5.0622 0003464 274.7609 122.2102 15.33635573 28784,6843.113,93.895,467.349,462.608,0.0
55673.0,STARLINK-5463,PAYLOAD,2023-08-18 06:00:02,15.30983407,0.00032,70.0009,1.5199,267.1727,282.841,-0.030841,-0.00853723,0.0,0 STARLINK-5463,1 55673U 23021AX  23230.25002315 -.00853723  00000-0 -30841-1 0  9999,2 55673  70.0009   1.5199 0003200 267.1727 282.8410 15.30983407 28988,6851.014,94.057,475.071,470.687,0.0
55673.0,STARLINK-5463,PAYLOAD,2023-08-18 22:00:00,15.29734573,0.0003288,70.0008,359.754,272.8067,348.9195,-0.035916,-0.00959874,0.0,0 STARLINK-5463,1 55673U 23021AX  23230.91667824 -.00959874  00000-0 -35916-1 0  9996,2 55673  70.0008 359.7540 0003288 272.8067 348.9195 15.29734573 29083,6854.742,94.134,478.861,474.353,0.0
55673.0,STARLINK-5463,PAYLOAD,2023-08-19 14:00:01,15.28415112,0.000337,70.0011,357.9918,272.1248,58.3328,-0.036487,-0.00937974,0.0,0 STARLINK-5463,1 55673U 23021AX  23231.58335648 -.00937974  00000-0 -36487-1 0  9997,2 55673  70.0011 357.9918 0003370 272.1248  58.3328 15.28415112 29198,6858.687,94.215,482.863,478.24,0.0
55673.0,STARLINK-5463,PAYLOAD,2023-08-20 22:00:00,15.25823665,0.0003312,70.0006,354.4777,278.452,179.8703,-0.040751,-0.00965859,0.0,0 STARLINK-5463,1 55673U 23021AX  23232.91667824 -.00965859  00000-0 -40751-1 0  9991,2 55673  70.0006 354.4777 0003312 278.4520 179.8703 15.25823665 29396,6866.45,94.375,490.589,486.041,0.0
55673.0,STARLINK-5463,PAYLOAD,2023-08-21 14:00:01,15.24494599,0.0003308,70.0007,352.726,275.9051,241.7005,-0.040628,-0.00928076,0.0,0 STARLINK-5463,1 55673U 23021AX  23233.58334491 -.00928076  00000-0 -40628-1 0  9999,2 55673  70.0007 352.7260 0003308 275.9051 241.7005 15.24494599 29495,6870.44,94.458,494.578,490.033,0.0
55673.0,STARLINK-5463,PAYLOAD,2023-08-22 22:00:00,15.2190926,0.0003362,70.0003,349.2323,275.942,350.8153,-0.045968,-0.0096903,0.0,0 STARLINK-5463,1 55673U 23021AX  23234.91667824 -.00969030  00000-0 -45968-1 0  9993,2 55673  70.0003 349.2323 0003362 275.9420 350.8153 15.21909260 29693,6878.219,94.618,502.396,497.772,0.0
55673.0,STARLINK-5463,PAYLOAD,2023-08-23 14:00:01,15.20577616,0.0003439,70.0006,347.4908,275.3935,41.2602,-0.045312,-0.00922124,0.0,0 STARLINK-5463,1 55673U 23021AX  23235.58334491 -.00922124  00000-0 -45312-1 0  9994,2 55673  70.0006 347.4908 0003439 275.3935  41.2602 15.20577616 29803,6882.234,94.701,506.466,501.732,0.0
55673.0,STARLINK-5463,PAYLOAD,2023-08-24 22:00:00,15.17993973,0.0003401,70.0002,344.0177,278.8284,128.2021,-0.05143,-0.00967195,0.0,0 STARLINK-5463,1 55673U 23021AX  23236.91667824 -.00967195  00000-0 -51430-1 0  9996,2 55673  70.0002 344.0177 0003401 278.8284 128.2021 15.17993973  5724,6890.041,94.862,514.249,509.563,0.0
55673.0,STARLINK-5463,PAYLOAD,2023-08-25 14:00:01,15.16662661,0.0003414,70.0005,342.2865,278.7007,168.8382,-0.050644,-0.00920258,0.0,0 STARLINK-5463,1 55673U 23021AX  23237.58334491 -.00920258  00000-0 -50644-1 0  9996,2 55673  70.0005 342.2865 0003414 278.7007 168.8382 15.16662661  5824,6894.072,94.945,518.291,513.584,0.0
55673.0,STARLINK-5463,PAYLOAD,2023-08-26 00:00:02,15.15854397,0.0003271,70.0004,341.2061,275.8353,285.4871,-0.052957,-0.00938807,0.0,0 STARLINK-5463,1 55673U 23021AX  23238.00002315 -.00938807  00000-0 -52957-1 0  9999,2 55673  70.0004 341.2061 0003271 275.8353 285.4871 15.15854397  5897,6896.523,94.996,520.644,516.132,0.0
55673.0,STARLINK-5463,PAYLOAD,2023-08-26 14:00:01,15.14701601,0.0003328,70.0006,339.6965,278.9636,223.4587,-0.053118,-0.00913272,0.0,0 STARLINK-5463,1 55673U 23021AX  23238.58334491 -.00913272  00000-0 -53118-1 0  9994,2 55673  70.0006 339.6965 0003328 278.9636 223.4587 15.14701601 30256,6900.022,95.068,524.183,519.59,0.0
55673.0,STARLINK-5463,PAYLOAD,2023-08-27 00:00:00,15.13893005,0.0003303,70.0006,338.6194,275.1267,338.0825,-0.055519,-0.00931528,0.0,0 STARLINK-5463,1 55673U 23021AX  23239.00001157 -.00931528  00000-0 -55519-1 0  9993,2 55673  70.0006 338.6194 0003303 275.1267 338.0825 15.13893005  6059,6902.478,95.119,526.623,522.063,0.0
55673.0,STARLINK-5463,PAYLOAD,2023-08-27 14:00:01,15.12740149,0.0003305,70.0009,337.1142,278.507,271.7577,-0.055585,-0.00904915,0.0,0 STARLINK-5463,1 55673U 23021AX  23239.58334491 -.00904915  00000-0 -55585-1 0  9999,2 55673  70.0009 337.1142 0003305 278.5070 271.7577 15.12740149 30402,6905.985,95.191,530.132,525.567,0.0
55673.0,STARLINK-5463,PAYLOAD,2023-08-27 22:00:00,15.12121311,0.0003217,70.0007,336.2551,277.5178,287.1181,-0.060588,-0.00964504,0.0,0 STARLINK-5463,1 55673U 23021AX  23239.91667824 -.00964504  00000-0 -60588-1 0  9994,2 55673  70.0007 336.2551 0003217 277.5178 287.1181 15.12121311  6043,6907.869,95.23,531.956,527.512,0.0
55673.0,STARLINK-5463,PAYLOAD,2023-08-28 14:00:01,15.10780131,0.0003301,70.0011,334.5399,278.1362,312.93,-0.058259,-0.00898483,0.0,0 STARLINK-5463,1 55673U 23021AX  23240.58334491 -.00898483  00000-0 -58259-1 0  9994,2 55673  70.0011 334.5399 0003301 278.1362 312.9300 15.10780131 30557,6911.957,95.315,536.103,531.54,0.0
55673.0,STARLINK-5463,PAYLOAD,2023-08-28 22:00:00,15.10162472,0.0003241,70.001,333.6834,276.8696,326.2213,-0.063841,-0.00962573,0.0,0 STARLINK-5463,1 55673U 23021AX  23240.91667824 -.00962573  00000-0 -63841-1 0  9995,2 55673  70.0010 333.6834 0003241 276.8696 326.2213 15.10162472  6037,6913.841,95.354,537.947,533.465,0.0
